INTELSAT 25 (IS-25)     
1 33153U 08034A   26088.18029370 -.00000241  00000+0  00000+0 0  9990
2 33153   2.5019  81.2708 0003512 238.7698 259.9516  1.00272232 64897
GALAXY 19 (G-19)        
1 33376U 08045A   26088.02467120 -.00000159  00000+0  00000+0 0  9999
2 33376   0.0170 235.4768 0002779 127.6327  95.2014  1.00271910 64091
FM-5                    
1 35493U 09034A   26088.09816484 -.00000220  00000+0  00000+0 0  9997
2 35493   0.0296 259.9036 0000745 357.8216 237.9582  1.00271412 45840
INTELSAT 14 (IS-14)     
1 36097U 09064A   26088.17760701 -.00000293  00000+0  00000+0 0  9990
2 36097   0.0222  94.9870 0002431 272.7638 197.7731  1.00271252 59802
INTELSAT 15 (IS-15)     
1 36106U 09067A   26088.13210685 -.00000204  00000+0  00000+0 0  9993
2 36106   0.0200 102.3093 0002282 266.3257 310.6108  1.00271253 40423
DIRECTV 12              
1 36131U 09075A   26088.16616697 -.00000123  00000+0  00000+0 0  9996
2 36131   0.0127  64.5221 0000380 301.7124 137.4179  1.00272015 45756
INTELSAT 16 (IS-16)     
1 36397U 10006A   26087.95745275 -.00000264  00000+0  00000+0 0  9993
2 36397   0.0288  79.1268 0001932 297.7760  77.9358  1.00271360 58848
XM-5                    
1 37185U 10053A   26088.13794728 -.00000043  00000+0  00000+0 0  9994
2 37185   0.0678 270.1966 0003731 270.5939 300.2115  1.00272270 56685
INTELSAT 17 (IS-17)     
1 37238U 10065B   26087.98561955 -.00000021  00000+0  00000+0 0  9998
2 37238   0.0132 186.8684 0002533 188.7988 231.5419  1.00271377 52442
INTELSAT 28 (IS-28)     
1 37392U 11016A   26088.18020703 -.00000243  00000+0  00000+0 0  9996
2 37392   1.6000  83.5959 0004540 285.9638 210.1848  1.00270874 52488
INTELSAT 18 (IS-18)     
1 37834U 11056A   26088.11503294  .00000034  00000+0  00000+0 0  9992
2 37834   0.0243 253.3152 0001777 108.6912  45.9192  1.00273957 53008
INTELSAT 22 (IS-22)     
1 38098U 12011A   26088.16711425 -.00000078  00000+0  00000+0 0  9998
2 38098   0.0265 115.0831 0001712 253.5680 310.1650  1.00271391  6389
INTELSAT 19 (IS-19)     
1 38356U 12030A   26087.91294873  .00000000  00000+0  00000+0 0  9995
2 38356   0.0228 179.2508 0003093 199.3559 302.3883  1.00269411 49641
INTELSAT 20 (IS-20)     
1 38740U 12043A   26088.04782140 -.00000043  00000+0  00000+0 0  9998
2 38740   0.0170 116.7827 0002663  44.8285 110.5372  1.00270782 49944
INTELSAT 21 (IS-21)     
1 38749U 12045A   26088.10371153 -.00000304  00000+0  00000+0 0  9994
2 38749   0.0212 249.1525 0001661 115.7382 160.9445  1.00272065 49721
INTELSAT 23 (IS-23)     
1 38867U 12057A   26088.03342457 -.00000304  00000+0  00000+0 0  9995
2 38867   0.0212 245.3924 0000680 131.7308 128.3174  1.00268600 49153
FM-6                    
1 39360U 13058A   26087.99211492 -.00000036  00000+0  00000+0 0  9996
2 39360   0.0185 125.0725 0002544  57.0016 245.1003  1.00276530 45269
