[{"OBJECT_NAME":"INTELSAT 25 (IS-25)","OBJECT_ID":"2008-034A","EPOCH":"2026-03-29T04:19:37.375680","MEAN_MOTION":1.00272232,"ECCENTRICITY":0.0003512,"INCLINATION":2.5019,"RA_OF_ASC_NODE":81.2708,"ARG_OF_PERICENTER":238.7698,"MEAN_ANOMALY":259.9516,"EPHEMERIS_TYPE":0,"CLASSIFICATION_TYPE":"U","NORAD_CAT_ID":33153,"ELEMENT_SET_NO":999,"REV_AT_EPOCH":6489,"BSTAR":0,"MEAN_MOTION_DOT":-2.41e-6,"MEAN_MOTION_DDOT":0},{"OBJECT_NAME":"GALAXY 19 (G-19)","OBJECT_ID":"2008-045A","EPOCH":"2026-03-29T00:35:31.591680","MEAN_MOTION":1.0027191,"ECCENTRICITY":0.0002779,"INCLINATION":0.017,"RA_OF_ASC_NODE":235.4768,"ARG_OF_PERICENTER":127.6327,"MEAN_ANOMALY":95.2014,"EPHEMERIS_TYPE":0,"CLASSIFICATION_TYPE":"U","NORAD_CAT_ID":33376,"ELEMENT_SET_NO":999,"REV_AT_EPOCH":6409,"BSTAR":0,"MEAN_MOTION_DOT":-1.59e-6,"MEAN_MOTION_DDOT":0},{"OBJECT_NAME":"FM-5","OBJECT_ID":"2009-034A","EPOCH":"2026-03-29T02:21:21.442176","MEAN_MOTION":1.00271412,"ECCENTRICITY":7.45e-5,"INCLINATION":0.0296,"RA_OF_ASC_NODE":259.9036,"ARG_OF_PERICENTER":357.8216,"MEAN_ANOMALY":237.9582,"EPHEMERIS_TYPE":0,"CLASSIFICATION_TYPE":"U","NORAD_CAT_ID":35493,"ELEMENT_SET_NO":999,"REV_AT_EPOCH":4584,"BSTAR":0,"MEAN_MOTION_DOT":-2.2e-6,"MEAN_MOTION_DDOT":0},{"OBJECT_NAME":"INTELSAT 14 (IS-14)","OBJECT_ID":"2009-064A","EPOCH":"2026-03-29T04:15:45.245664","MEAN_MOTION":1.00271252,"ECCENTRICITY":0.0002431,"INCLINATION":0.0222,"RA_OF_ASC_NODE":94.987,"ARG_OF_PERICENTER":272.7638,"MEAN_ANOMALY":197.7731,"EPHEMERIS_TYPE":0,"CLASSIFICATION_TYPE":"U","NORAD_CAT_ID":36097,"ELEMENT_SET_NO":999,"REV_AT_EPOCH":5980,"BSTAR":0,"MEAN_MOTION_DOT":-2.93e-6,"MEAN_MOTION_DDOT":0},{"OBJECT_NAME":"INTELSAT 15 (IS-15)","OBJECT_ID":"2009-067A","EPOCH":"2026-03-29T03:10:14.031840","MEAN_MOTION":1.00271253,"ECCENTRICITY":0.0002282,"INCLINATION":0.02,"RA_OF_ASC_NODE":102.3093,"ARG_OF_PERICENTER":266.3257,"MEAN_ANOMALY":310.6108,"EPHEMERIS_TYPE":0,"CLASSIFICATION_TYPE":"U","NORAD_CAT_ID":36106,"ELEMENT_SET_NO":999,"REV_AT_EPOCH":4042,"BSTAR":0,"MEAN_MOTION_DOT":-2.04e-6,"MEAN_MOTION_DDOT":0},{"OBJECT_NAME":"DIRECTV 12","OBJECT_ID":"2009-075A","EPOCH":"2026-03-29T03:59:16.826208","MEAN_MOTION":1.00272015,"ECCENTRICITY":3.8e-5,"INCLINATION":0.0127,"RA_OF_ASC_NODE":64.5221,"ARG_OF_PERICENTER":301.7124,"MEAN_ANOMALY":137.4179,"EPHEMERIS_TYPE":0,"CLASSIFICATION_TYPE":"U","NORAD_CAT_ID":36131,"ELEMENT_SET_NO":999,"REV_AT_EPOCH":4575,"BSTAR":0,"MEAN_MOTION_DOT":-1.23e-6,"MEAN_MOTION_DDOT":0},{"OBJECT_NAME":"INTELSAT 16 (IS-16)","OBJECT_ID":"2010-006A","EPOCH":"2026-03-28T22:58:43.917600","MEAN_MOTION":1.0027136,"ECCENTRICITY":0.0001932,"INCLINATION":0.0288,"RA_OF_ASC_NODE":79.1268,"ARG_OF_PERICENTER":297.776,"MEAN_ANOMALY":77.9358,"EPHEMERIS_TYPE":0,"CLASSIFICATION_TYPE":"U","NORAD_CAT_ID":36397,"ELEMENT_SET_NO":999,"REV_AT_EPOCH":5884,"BSTAR":0,"MEAN_MOTION_DOT":-2.64e-6,"MEAN_MOTION_DDOT":0},{"OBJECT_NAME":"XM-5","OBJECT_ID":"2010-053A","EPOCH":"2026-03-29T03:18:38.644992","MEAN_MOTION":1.0027227,"ECCENTRICITY":0.0003731,"INCLINATION":0.0678,"RA_OF_ASC_NODE":270.1966,"ARG_OF_PERICENTER":270.5939,"MEAN_ANOMALY":300.2115,"EPHEMERIS_TYPE":0,"CLASSIFICATION_TYPE":"U","NORAD_CAT_ID":37185,"ELEMENT_SET_NO":999,"REV_AT_EPOCH":5668,"BSTAR":0,"MEAN_MOTION_DOT":-4.3e-7,"MEAN_MOTION_DDOT":0},{"OBJECT_NAME":"INTELSAT 17 (IS-17)","OBJECT_ID":"2010-065B","EPOCH":"2026-03-28T23:39:17.529120","MEAN_MOTION":1.00271377,"ECCENTRICITY":0.0002533,"INCLINATION":0.0132,"RA_OF_ASC_NODE":186.8684,"ARG_OF_PERICENTER":188.7988,"MEAN_ANOMALY":231.5419,"EPHEMERIS_TYPE":0,"CLASSIFICATION_TYPE":"U","NORAD_CAT_ID":37238,"ELEMENT_SET_NO":999,"REV_AT_EPOCH":5244,"BSTAR":0,"MEAN_MOTION_DOT":-2.1e-7,"MEAN_MOTION_DDOT":0},{"OBJECT_NAME":"INTELSAT 28 (IS-28)","OBJECT_ID":"2011-016A","EPOCH":"2026-03-29T04:19:29.887392","MEAN_MOTION":1.00270874,"ECCENTRICITY":0.000454,"INCLINATION":1.6,"RA_OF_ASC_NODE":83.5959,"ARG_OF_PERICENTER":285.9638,"MEAN_ANOMALY":210.1848,"EPHEMERIS_TYPE":0,"CLASSIFICATION_TYPE":"U","NORAD_CAT_ID":37392,"ELEMENT_SET_NO":999,"REV_AT_EPOCH":5248,"BSTAR":0,"MEAN_MOTION_DOT":-2.43e-6,"MEAN_MOTION_DDOT":0},{"OBJECT_NAME":"INTELSAT 18 (IS-18)","OBJECT_ID":"2011-056A","EPOCH":"2026-03-29T02:45:38.846016","MEAN_MOTION":1.00273957,"ECCENTRICITY":0.0001777,"INCLINATION":0.0243,"RA_OF_ASC_NODE":253.3152,"ARG_OF_PERICENTER":108.6912,"MEAN_ANOMALY":45.9192,"EPHEMERIS_TYPE":0,"CLASSIFICATION_TYPE":"U","NORAD_CAT_ID":37834,"ELEMENT_SET_NO":999,"REV_AT_EPOCH":5300,"BSTAR":0,"MEAN_MOTION_DOT":3.4e-7,"MEAN_MOTION_DDOT":0},{"OBJECT_NAME":"INTELSAT 22 (IS-22)","OBJECT_ID":"2012-011A","EPOCH":"2026-03-29T04:00:38.671200","MEAN_MOTION":1.00271391,"ECCENTRICITY":0.0001712,"INCLINATION":0.0265,"RA_OF_ASC_NODE":115.0831,"ARG_OF_PERICENTER":253.568,"MEAN_ANOMALY":310.165,"EPHEMERIS_TYPE":0,"CLASSIFICATION_TYPE":"U","NORAD_CAT_ID":38098,"ELEMENT_SET_NO":999,"REV_AT_EPOCH":638,"BSTAR":0,"MEAN_MOTION_DOT":-7.8e-7,"MEAN_MOTION_DDOT":0},{"OBJECT_NAME":"INTELSAT 19 (IS-19)","OBJECT_ID":"2012-030A","EPOCH":"2026-03-28T21:54:38.770272","MEAN_MOTION":1.00269411,"ECCENTRICITY":0.0003093,"INCLINATION":0.0228,"RA_OF_ASC_NODE":179.2508,"ARG_OF_PERICENTER":199.3559,"MEAN_ANOMALY":302.3883,"EPHEMERIS_TYPE":0,"CLASSIFICATION_TYPE":"U","NORAD_CAT_ID":38356,"ELEMENT_SET_NO":999,"REV_AT_EPOCH":4964,"BSTAR":0,"MEAN_MOTION_DOT":0,"MEAN_MOTION_DDOT":0},{"OBJECT_NAME":"INTELSAT 20 (IS-20)","OBJECT_ID":"2012-043A","EPOCH":"2026-03-29T01:08:51.768960","MEAN_MOTION":1.00270782,"ECCENTRICITY":0.0002663,"INCLINATION":0.017,"RA_OF_ASC_NODE":116.7827,"ARG_OF_PERICENTER":44.8285,"MEAN_ANOMALY":110.5372,"EPHEMERIS_TYPE":0,"CLASSIFICATION_TYPE":"U","NORAD_CAT_ID":38740,"ELEMENT_SET_NO":999,"REV_AT_EPOCH":4994,"BSTAR":0,"MEAN_MOTION_DOT":-4.3e-7,"MEAN_MOTION_DDOT":0},{"OBJECT_NAME":"INTELSAT 21 (IS-21)","OBJECT_ID":"2012-045A","EPOCH":"2026-03-29T02:29:20.676192","MEAN_MOTION":1.00272065,"ECCENTRICITY":0.0001661,"INCLINATION":0.0212,"RA_OF_ASC_NODE":249.1525,"ARG_OF_PERICENTER":115.7382,"MEAN_ANOMALY":160.9445,"EPHEMERIS_TYPE":0,"CLASSIFICATION_TYPE":"U","NORAD_CAT_ID":38749,"ELEMENT_SET_NO":999,"REV_AT_EPOCH":4972,"BSTAR":0,"MEAN_MOTION_DOT":-3.04e-6,"MEAN_MOTION_DDOT":0},{"OBJECT_NAME":"INTELSAT 23 (IS-23)","OBJECT_ID":"2012-057A","EPOCH":"2026-03-29T00:48:07.882848","MEAN_MOTION":1.002686,"ECCENTRICITY":6.8e-5,"INCLINATION":0.0212,"RA_OF_ASC_NODE":245.3924,"ARG_OF_PERICENTER":131.7308,"MEAN_ANOMALY":128.3174,"EPHEMERIS_TYPE":0,"CLASSIFICATION_TYPE":"U","NORAD_CAT_ID":38867,"ELEMENT_SET_NO":999,"REV_AT_EPOCH":4915,"BSTAR":0,"MEAN_MOTION_DOT":-3.04e-6,"MEAN_MOTION_DDOT":0},{"OBJECT_NAME":"FM-6","OBJECT_ID":"2013-058A","EPOCH":"2026-03-28T23:48:38.729088","MEAN_MOTION":1.0027653,"ECCENTRICITY":0.0002544,"INCLINATION":0.0185,"RA_OF_ASC_NODE":125.0725,"ARG_OF_PERICENTER":57.0016,"MEAN_ANOMALY":245.1003,"EPHEMERIS_TYPE":0,"CLASSIFICATION_TYPE":"U","NORAD_CAT_ID":39360,"ELEMENT_SET_NO":999,"REV_AT_EPOCH":4526,"BSTAR":0,"MEAN_MOTION_DOT":-3.6e-7,"MEAN_MOTION_DDOT":0}]
